<?xml version="1.0" encoding="UTF-8"?>
<ndm xmlns:xsi="http://www.w3.org/2001/XMLSchema-instance" xsi:noNamespaceSchemaLocation="https://sanaregistry.org/r/ndmxml_unqualified/ndmxml-2.0.0-master-2.0.xsd">
<omm id="CCSDS_OMM_VERS" version="2.0">
<header><CREATION_DATE/><ORIGINATOR/></header><body><segment><metadata><OBJECT_NAME>ORBCOMM FM103</OBJECT_NAME><OBJECT_ID>2014-040F</OBJECT_ID><CENTER_NAME>EARTH</CENTER_NAME><REF_FRAME>TEME</REF_FRAME><TIME_SYSTEM>UTC</TIME_SYSTEM><MEAN_ELEMENT_THEORY>SGP4</MEAN_ELEMENT_THEORY></metadata><data><meanElements><EPOCH>2025-02-15T23:07:53.215968</EPOCH><MEAN_MOTION>14.57807229</MEAN_MOTION><ECCENTRICITY>.0001374</ECCENTRICITY><INCLINATION>47.0038</INCLINATION><RA_OF_ASC_NODE>230.1667</RA_OF_ASC_NODE><ARG_OF_PERICENTER>100.5256</ARG_OF_PERICENTER><MEAN_ANOMALY>259.5784</MEAN_ANOMALY></meanElements><tleParameters><EPHEMERIS_TYPE>0</EPHEMERIS_TYPE><CLASSIFICATION_TYPE>U</CLASSIFICATION_TYPE><NORAD_CAT_ID>40091</NORAD_CAT_ID><ELEMENT_SET_NO>999</ELEMENT_SET_NO><REV_AT_EPOCH>56347</REV_AT_EPOCH><BSTAR>.36192E-3</BSTAR><MEAN_MOTION_DOT>.1503E-4</MEAN_MOTION_DOT><MEAN_MOTION_DDOT>0</MEAN_MOTION_DDOT></tleParameters></data></segment></body></omm>
<omm id="CCSDS_OMM_VERS" version="2.0">
<header><CREATION_DATE/><ORIGINATOR/></header><body><segment><metadata><OBJECT_NAME>ORBCOMM FM114</OBJECT_NAME><OBJECT_ID>2015-081A</OBJECT_ID><CENTER_NAME>EARTH</CENTER_NAME><REF_FRAME>TEME</REF_FRAME><TIME_SYSTEM>UTC</TIME_SYSTEM><MEAN_ELEMENT_THEORY>SGP4</MEAN_ELEMENT_THEORY></metadata><data><meanElements><EPOCH>2025-02-15T23:44:58.464384</EPOCH><MEAN_MOTION>14.57867026</MEAN_MOTION><ECCENTRICITY>.0002131</ECCENTRICITY><INCLINATION>47.0023</INCLINATION><RA_OF_ASC_NODE>139.1673</RA_OF_ASC_NODE><ARG_OF_PERICENTER>186.9670</ARG_OF_PERICENTER><MEAN_ANOMALY>173.1186</MEAN_ANOMALY></meanElements><tleParameters><EPHEMERIS_TYPE>0</EPHEMERIS_TYPE><CLASSIFICATION_TYPE>U</CLASSIFICATION_TYPE><NORAD_CAT_ID>41179</NORAD_CAT_ID><ELEMENT_SET_NO>999</ELEMENT_SET_NO><REV_AT_EPOCH>48683</REV_AT_EPOCH><BSTAR>.36476E-3</BSTAR><MEAN_MOTION_DOT>.1518E-4</MEAN_MOTION_DOT><MEAN_MOTION_DDOT>0</MEAN_MOTION_DDOT></tleParameters></data></segment></body></omm>
<omm id="CCSDS_OMM_VERS" version="2.0">
<header><CREATION_DATE/><ORIGINATOR/></header><body><segment><metadata><OBJECT_NAME>ORBCOMM FM119</OBJECT_NAME><OBJECT_ID>2015-081B</OBJECT_ID><CENTER_NAME>EARTH</CENTER_NAME><REF_FRAME>TEME</REF_FRAME><TIME_SYSTEM>UTC</TIME_SYSTEM><MEAN_ELEMENT_THEORY>SGP4</MEAN_ELEMENT_THEORY></metadata><data><meanElements><EPOCH>2025-02-16T02:36:11.117664</EPOCH><MEAN_MOTION>14.57784775</MEAN_MOTION><ECCENTRICITY>.0001791</ECCENTRICITY><INCLINATION>47.0010</INCLINATION><RA_OF_ASC_NODE>47.8722</RA_OF_ASC_NODE><ARG_OF_PERICENTER>254.3993</ARG_OF_PERICENTER><MEAN_ANOMALY>105.6695</MEAN_ANOMALY></meanElements><tleParameters><EPHEMERIS_TYPE>0</EPHEMERIS_TYPE><CLASSIFICATION_TYPE>U</CLASSIFICATION_TYPE><NORAD_CAT_ID>41180</NORAD_CAT_ID><ELEMENT_SET_NO>999</ELEMENT_SET_NO><REV_AT_EPOCH>48805</REV_AT_EPOCH><BSTAR>.34933E-3</BSTAR><MEAN_MOTION_DOT>.1444E-4</MEAN_MOTION_DOT><MEAN_MOTION_DDOT>0</MEAN_MOTION_DDOT></tleParameters></data></segment></body></omm>
<omm id="CCSDS_OMM_VERS" version="2.0">
<header><CREATION_DATE/><ORIGINATOR/></header><body><segment><metadata><OBJECT_NAME>ORBCOMM FM105</OBJECT_NAME><OBJECT_ID>2015-081C</OBJECT_ID><CENTER_NAME>EARTH</CENTER_NAME><REF_FRAME>TEME</REF_FRAME><TIME_SYSTEM>UTC</TIME_SYSTEM><MEAN_ELEMENT_THEORY>SGP4</MEAN_ELEMENT_THEORY></metadata><data><meanElements><EPOCH>2025-02-16T02:13:48.916992</EPOCH><MEAN_MOTION>14.45031570</MEAN_MOTION><ECCENTRICITY>.0001007</ECCENTRICITY><INCLINATION>47.0024</INCLINATION><RA_OF_ASC_NODE>41.1908</RA_OF_ASC_NODE><ARG_OF_PERICENTER>168.0376</ARG_OF_PERICENTER><MEAN_ANOMALY>192.0529</MEAN_ANOMALY></meanElements><tleParameters><EPHEMERIS_TYPE>0</EPHEMERIS_TYPE><CLASSIFICATION_TYPE>U</CLASSIFICATION_TYPE><NORAD_CAT_ID>41181</NORAD_CAT_ID><ELEMENT_SET_NO>999</ELEMENT_SET_NO><REV_AT_EPOCH>48334</REV_AT_EPOCH><BSTAR>.25541E-3</BSTAR><MEAN_MOTION_DOT>.742E-5</MEAN_MOTION_DOT><MEAN_MOTION_DDOT>0</MEAN_MOTION_DDOT></tleParameters></data></segment></body></omm>
<omm id="CCSDS_OMM_VERS" version="2.0">
<header><CREATION_DATE/><ORIGINATOR/></header><body><segment><metadata><OBJECT_NAME>ORBCOMM FM118</OBJECT_NAME><OBJECT_ID>2015-081E</OBJECT_ID><CENTER_NAME>EARTH</CENTER_NAME><REF_FRAME>TEME</REF_FRAME><TIME_SYSTEM>UTC</TIME_SYSTEM><MEAN_ELEMENT_THEORY>SGP4</MEAN_ELEMENT_THEORY></metadata><data><meanElements><EPOCH>2025-02-15T17:49:25.584672</EPOCH><MEAN_MOTION>14.57763300</MEAN_MOTION><ECCENTRICITY>.0003379</ECCENTRICITY><INCLINATION>47.0031</INCLINATION><RA_OF_ASC_NODE>140.1291</RA_OF_ASC_NODE><ARG_OF_PERICENTER>286.3028</ARG_OF_PERICENTER><MEAN_ANOMALY>73.7486</MEAN_ANOMALY></meanElements><tleParameters><EPHEMERIS_TYPE>0</EPHEMERIS_TYPE><CLASSIFICATION_TYPE>U</CLASSIFICATION_TYPE><NORAD_CAT_ID>41183</NORAD_CAT_ID><ELEMENT_SET_NO>999</ELEMENT_SET_NO><REV_AT_EPOCH>48680</REV_AT_EPOCH><BSTAR>.50273E-3</BSTAR><MEAN_MOTION_DOT>.2151E-4</MEAN_MOTION_DOT><MEAN_MOTION_DDOT>0</MEAN_MOTION_DDOT></tleParameters></data></segment></body></omm>
<omm id="CCSDS_OMM_VERS" version="2.0">
<header><CREATION_DATE/><ORIGINATOR/></header><body><segment><metadata><OBJECT_NAME>ORBCOMM FM113</OBJECT_NAME><OBJECT_ID>2015-081G</OBJECT_ID><CENTER_NAME>EARTH</CENTER_NAME><REF_FRAME>TEME</REF_FRAME><TIME_SYSTEM>UTC</TIME_SYSTEM><MEAN_ELEMENT_THEORY>SGP4</MEAN_ELEMENT_THEORY></metadata><data><meanElements><EPOCH>2025-02-16T01:29:00.014208</EPOCH><MEAN_MOTION>14.57781812</MEAN_MOTION><ECCENTRICITY>.0001444</ECCENTRICITY><INCLINATION>47.0014</INCLINATION><RA_OF_ASC_NODE>47.5675</RA_OF_ASC_NODE><ARG_OF_PERICENTER>250.2236</ARG_OF_PERICENTER><MEAN_ANOMALY>109.8494</MEAN_ANOMALY></meanElements><tleParameters><EPHEMERIS_TYPE>0</EPHEMERIS_TYPE><CLASSIFICATION_TYPE>U</CLASSIFICATION_TYPE><NORAD_CAT_ID>41185</NORAD_CAT_ID><ELEMENT_SET_NO>999</ELEMENT_SET_NO><REV_AT_EPOCH>48804</REV_AT_EPOCH><BSTAR>.35579E-3</BSTAR><MEAN_MOTION_DOT>.1474E-4</MEAN_MOTION_DOT><MEAN_MOTION_DDOT>0</MEAN_MOTION_DDOT></tleParameters></data></segment></body></omm>

</ndm>
