ORBCOMM FM103           
1 40091U 14040F   25046.96381037  .00001503  00000+0  36192-3 0  9999
2 40091  47.0038 230.1667 0001374 100.5256 259.5784 14.57807229563477
ORBCOMM FM114           
1 41179U 15081A   25046.98956556  .00001518  00000+0  36476-3 0  9990
2 41179  47.0023 139.1673 0002131 186.9670 173.1186 14.57867026486836
ORBCOMM FM119           
1 41180U 15081B   25047.10846201  .00001444  00000+0  34933-3 0  9996
2 41180  47.0010  47.8722 0001791 254.3993 105.6695 14.57784775488053
ORBCOMM FM105           
1 41181U 15081C   25047.09292728  .00000742  00000+0  25541-3 0  9999
2 41181  47.0024  41.1908 0001007 168.0376 192.0529 14.45031570483346
ORBCOMM FM118           
1 41183U 15081E   25046.74265723  .00002151  00000+0  50273-3 0  9993
2 41183  47.0031 140.1291 0003379 286.3028  73.7486 14.57763300486721
ORBCOMM FM113           
1 41185U 15081G   25047.06180572  .00001474  00000+0  35579-3 0  9998
2 41185  47.0014  47.5675 0001444 250.2236 109.8494 14.57781812488047
